ONEWEB-0258             
1 48976U 21060K   26026.37001139 -.00000117  00000+0 -34063-3 0  9992
2 48976  87.9007 257.0180 0001512  86.7341 273.3963 13.16593695220935
ONEWEB-0259             
1 48977U 21060L   26026.36367792 -.00000232  00000+0 -64022-3 0  9998
2 48977  87.9017 257.0164 0001339  85.3176 274.8108 13.16593596220967
ONEWEB-0260             
1 48978U 21060M   26026.35497485 -.00000027  00000+0 -10316-3 0  9990
2 48978  87.9004 257.0263 0001719  68.5071 291.6243 13.16594150220945
ONEWEB-0261             
1 48979U 21060N   26026.17289742  .00000010  00000+0 -72510-5 0  9993
2 48979  87.9003 257.0652 0001175  73.9791 286.1469 13.16593970220973
ONEWEB-0262             
1 48980U 21060P   26026.38109485 -.00000082  00000+0 -24694-3 0  9991
2 48980  87.9017 257.0013 0001294  95.2749 264.8530 13.16594143220967
ONEWEB-0263             
1 48981U 21060Q   26026.33675548 -.00000186  00000+0 -52026-3 0  9990
2 48981  87.9011 257.0221 0001067  80.1989 279.9262 13.16595110220920
ONEWEB-0264             
1 48982U 21060R   26026.14597924 -.00000019  00000+0 -83724-4 0  9996
2 48982  87.9012 257.0637 0001418  73.3562 286.7725 13.16593230220903
ONEWEB-0266             
1 48984U 21060T   26026.39534489 -.00000159  00000+0 -44991-3 0  9999
2 48984  87.9015 257.0030 0001515  89.0211 271.1094 13.16593779220925
